     3.02           N: GNSS NAV DATA    M: Mixed            RINEX VERSION / TYPE
CONVBIN 2.4.2                           20230414 203159 UTC PGM / RUN BY / DATE 
log: data\oem3_20090410.gps                                 COMMENT             
format: NovAtel OEM3                                        COMMENT             
                                                            END OF HEADER       
G14 2028 11 24 14  0  0 -.127926934510E-03  .568434188608E-11  .000000000000E+00
      .460000000000E+02 -.126812500000E+03  .385766068705E-08  .355311553524E-01
     -.652857124805E-05  .435830315109E-02  .694952905178E-05  .515359462166E+04
      .482400000000E+06  .372529029846E-08  .261102592213E+01  .115483999252E-06
      .988654637891E+00  .260875000000E+03 -.212749519316E+01 -.796283168390E-08
     -.495020619596E-09  .100000000000E+01  .255000000000E+04  .000000000000E+00
      .240000000000E+01  .000000000000E+00 -.931322574615E-08  .460000000000E+02
      .480366000000E+06  .400000000000E+01
G16 2028 11 24 16  0  0  .605401583016E-04 -.306954461848E-11  .000000000000E+00
      .500000000000E+01  .232500000000E+02  .474841207614E-08  .281183218586E+01
      .124610960484E-05  .528484524693E-02  .470131635666E-05  .515378695869E+04
      .489600000000E+06 -.149011611938E-07 -.159378956762E+01  .540167093277E-07
      .967574599869E+00  .291375000000E+03 -.370405144975E+00 -.813283876538E-08
      .339299847486E-09  .100000000000E+01  .255000000000E+04  .000000000000E+00
      .240000000000E+01  .000000000000E+00 -.977888703346E-08  .500000000000E+01
      .487356000000E+06  .400000000000E+01
G31 2028 11 24 16  0  0 -.573187135160E-04 -.102318153949E-11  .000000000000E+00
      .350000000000E+02 -.135312500000E+02  .390837708531E-08 -.118688233588E+01
     -.720843672752E-06  .716048234608E-02  .127255916595E-04  .515369025993E+04
      .489600000000E+06 -.894069671631E-07 -.266476831706E+01  .931322574615E-07
      .972427372703E+00  .144250000000E+03 -.115497484909E+01 -.774817988565E-08
      .461447792581E-09  .100000000000E+01  .255000000000E+04  .000000000000E+00
      .240000000000E+01  .000000000000E+00 -.130385160446E-07  .350000000000E+02
      .487356000000E+06  .400000000000E+01
G29 2028 11 24 14  0  0  .809552147985E-05  .420641299570E-11  .000000000000E+00
      .440000000000E+02 -.357187500000E+02  .468412368398E-08 -.303199315859E+01
     -.205077230930E-05  .339398055803E-02  .877119600773E-05  .515370368767E+04
      .482400000000E+06  .122934579849E-06 -.542990235551E+00  .124797224998E-06
      .960053838965E+00  .206218750000E+03 -.133720232384E+01 -.799997608826E-08
     -.491806199988E-09  .100000000000E+01  .255000000000E+04  .000000000000E+00
      .240000000000E+01  .000000000000E+00 -.884756445885E-08  .440000000000E+02
      .482376000000E+06  .400000000000E+01
G24 2028 11 24 16  0  0  .180213712156E-03  .306954461848E-11  .000000000000E+00
      .330000000000E+02  .101906250000E+03  .453090301601E-08  .290789608106E+01
      .532343983650E-05  .680108624510E-02  .105388462543E-04  .515368540573E+04
      .489600000000E+06 -.428408384323E-07  .529514359393E+00  .156462192535E-06
      .951373229794E+00  .170375000000E+03 -.643104788536E+00 -.790390065776E-08
      .141077305007E-09  .100000000000E+01  .255000000000E+04  .000000000000E+00
      .240000000000E+01  .000000000000E+00 -.139698386192E-08  .330000000000E+02
      .482796000000E+06  .400000000000E+01
G 6 2028 11 24 16  0  0  .741914846003E-04  .173940861714E-10  .000000000000E+00
      .220000000000E+02 -.433125000000E+02  .529164898985E-08  .283540559951E+01
     -.242143869400E-05  .590095017105E-02  .797025859356E-05  .515370768166E+04
      .489600000000E+06  .186264514923E-06 -.613183773337E+00 -.260770320892E-07
      .933811438069E+00  .209468750000E+03 -.140690402565E+01 -.830677458193E-08
     -.535379443560E-09  .100000000000E+01  .255000000000E+04  .000000000000E+00
      .240000000000E+01  .000000000000E+00 -.465661287308E-08  .220000000000E+02
      .487356000000E+06  .400000000000E+01
G23 2028 11 24 16  0  0  .389268621802E-03  .341060513165E-12  .000000000000E+00
      .720000000000E+02 -.125500000000E+03  .429625038464E-08  .530749745434E+00
     -.676512718201E-05  .592570553999E-02  .572949647903E-05  .515362795067E+04
      .489600000000E+06  .949949026108E-07  .257928878630E+01  .000000000000E+00
      .970633347986E+00  .271031250000E+03  .287429278841E+01 -.820962767823E-08
     -.544308386915E-09  .100000000000E+01  .255000000000E+04  .000000000000E+00
      .240000000000E+01  .000000000000E+00 -.200234353542E-07  .720000000000E+02
      .487356000000E+06  .400000000000E+01
G30 2028 11 24 14  0  0  .138293020427E-03  .261479726760E-11  .000000000000E+00
      .860000000000E+02  .263437500000E+02  .513485674454E-08  .161768620132E+01
      .127777457237E-05  .112586872419E-01  .484660267830E-05  .515360483360E+04
      .482400000000E+06 -.577419996262E-07 -.165764376496E+01 -.292435288429E-06
      .951130913506E+00  .280375000000E+03  .141426389482E+01 -.841499337539E-08
      .466090843126E-09  .100000000000E+01  .255000000000E+04  .000000000000E+00
      .240000000000E+01  .000000000000E+00 -.791624188423E-08  .860000000000E+02
      .479076000000E+06  .400000000000E+01
G21 2028 11 24 16  0  0  .199591740966E-04 -.193267624127E-11  .000000000000E+00
      .920000000000E+02  .982500000000E+02  .495377777330E-08 -.200605516985E+01
      .473856925964E-05  .149833518080E-01  .101085752249E-04  .515363203621E+04
      .489600000000E+06  .169500708580E-06  .498184616989E+00 -.152736902237E-06
      .934754865161E+00  .170781250000E+03 -.262410189501E+01 -.805997858760E-08
      .303226916332E-09  .100000000000E+01  .255000000000E+04  .000000000000E+00
      .240000000000E+01  .000000000000E+00 -.116415321827E-07  .920000000000E+02
      .487356000000E+06  .400000000000E+01
G32 2028 11 24 14  0  0  .276423059404E-03 -.488853402203E-11  .000000000000E+00
      .103000000000E+03  .427187500000E+02  .487984612232E-08 -.134550101045E+01
      .231154263020E-05  .133823772194E-01  .147148966789E-05  .515359429359E+04
      .482400000000E+06 -.372529029846E-06  .161164873987E+01  .502914190292E-07
      .964297663371E+00  .353156250000E+03 -.117836729392E+01 -.871000566384E-08
      .675028117631E-10  .100000000000E+01  .255000000000E+04  .000000000000E+00
      .340000000000E+01  .000000000000E+00 -.325962901115E-08  .103000000000E+03
      .478476000000E+06  .400000000000E+01
G 3 2028 11 24 15 59 44  .377670861781E-03  .534328137292E-11  .000000000000E+00
      .290000000000E+02 -.412812500000E+02  .559201864431E-08  .345080305317E+00
     -.219419598579E-05  .117746089818E-01  .737234950066E-05  .515374348450E+04
      .489584000000E+06 -.726431608200E-07 -.680388446601E+00  .150874257088E-06
      .926255039017E+00  .221031250000E+03  .895630366074E+00 -.869750514314E-08
     -.543951229181E-09  .100000000000E+01  .255000000000E+04  .000000000000E+00
      .240000000000E+01  .000000000000E+00 -.419095158577E-08  .290000000000E+02
      .487356000000E+06  .400000000000E+01
G13 2028 11 24 16  0  0  .294114463031E-03  .113686837722E-11  .000000000000E+00
      .530000000000E+02 -.127468750000E+03  .363729436505E-08  .135794044426E+01
     -.686384737492E-05  .401964387856E-02  .680051743984E-05  .515373171806E+04
      .489600000000E+06  .372529029846E-08  .263017867823E+01 -.633299350739E-07
      .995130424708E+00  .267281250000E+03  .152951447119E+01 -.780068207258E-08
     -.533950812623E-09  .100000000000E+01  .255000000000E+04  .000000000000E+00
      .240000000000E+01  .000000000000E+00 -.111758708954E-07  .530000000000E+02
      .487356000000E+06  .400000000000E+01
G19 2028 11 24 16  0  0  .286358408630E-04 -.909494701773E-12  .000000000000E+00
      .280000000000E+02 -.373750000000E+02  .466876590141E-08  .106890786894E+01
     -.194273889065E-05  .543900928460E-02  .906363129616E-05  .515358780479E+04
      .489600000000E+06  .135973095894E-06 -.495055404496E+00  .111758708954E-07
      .957610230344E+00  .202593750000E+03 -.376636213393E+00 -.801676250177E-08
     -.571095216980E-09  .100000000000E+01  .255000000000E+04  .000000000000E+00
      .240000000000E+01  .000000000000E+00 -.149011611938E-07  .280000000000E+02
      .487356000000E+06  .400000000000E+01
G25 2028 11 24 16  0  0  .351684167981E-03  .216004991671E-10  .000000000000E+00
      .420000000000E+02 -.429062500000E+02  .374622747398E-08 -.287652094139E+01
     -.219233334064E-05  .116037486587E-01  .128112733364E-04  .515366445732E+04
      .489600000000E+06  .875443220139E-07 -.275694712756E+01  .651925802231E-07
      .969372542280E+00  .135875000000E+03 -.121036576983E+01 -.737173563381E-08
      .241081470582E-09  .100000000000E+01  .255000000000E+04  .000000000000E+00
      .240000000000E+01  .000000000000E+00 -.745058059692E-08  .420000000000E+02
      .487356000000E+06  .400000000000E+01
G 7 2028 11 24 16  0  0  .205636024475E-04 -.454747350886E-12  .000000000000E+00
      .210000000000E+02 -.213437500000E+02  .393909265045E-08 -.106054004336E+01
     -.116974115372E-05  .240539037623E-02  .121667981148E-04  .515367694664E+04
      .489600000000E+06 -.651925802231E-07 -.266242494905E+01 -.856816768646E-07
      .967034850392E+00  .150187500000E+03  .290254201594E+01 -.761424573533E-08
      .349300264044E-09  .100000000000E+01  .255000000000E+04  .000000000000E+00
      .240000000000E+01  .000000000000E+00 -.107102096081E-07  .210000000000E+02
      .487356000000E+06  .400000000000E+01
